[
    {
        "Altitude(m)": 604221.1948639263,
        "Argument of Periapsis(deg)": 0.0,
        "Eccentricity": 0.0,
        "Inclination(deg)": 60.0,
        "Latitude(deg)": 14.11719188813571,
        "Longitude(deg)": -116.6658366858258,
        "Mean Anomaly(deg)": 16.363599999999984,
        "RAAN(deg)": 335.0,
        "Satellite Name": "Test1 1475",
        "Satellite Number": 1475,
        "Semi-Major Axis(m)": 6980739.136638005,
        "Time(s)": 0
    },
    {
        "Altitude(m)": 604235.3354146982,
        "Argument of Periapsis(deg)": 0.00010418945913296404,
        "Eccentricity": 0.0,
        "Inclination(deg)": 60.0,
        "Latitude(deg)": 14.651588462973141,
        "Longitude(deg)": -116.37738943592193,
        "Mean Anomaly(deg)": 16.983706145461838,
        "RAAN(deg)": 334.99957995086027,
        "Satellite Name": "Test1 1475",
        "Satellite Number": 1475,
        "Semi-Major Axis(m)": 6980739.136638005,
        "Time(s)": 10
    }
]